LEMUR-1                 
1 40044U 14033AL  26198.20513138  .00000727  00000+0  89273-4 0  9990
2 40044  97.7912 347.3507 0047561 341.2591  18.6872 14.85340073649923
LEMUR-2-GREENBERG       
1 42837U 17042N   26198.00619138  .00009191  00000+0  29800-3 0  9993
2 42837  97.3832  18.5143 0007259 251.9389 108.1062 15.32187524492955
LEMUR-2-ANDIS           
1 42838U 17042P   26197.44337105  .00012949  00000+0  37176-3 0  9992
2 42838  97.3681  18.2427 0007241 252.8330 107.2121 15.35956970492944
LEMUR-2-MONSON          
1 42839U 17042Q   26197.49124751  .00007839  00000+0  28284-3 0  9991
2 42839  97.4090  17.9272 0005395 239.7069 120.3638 15.28773757492643
LEMUR-2-FURIAUS         
1 42840U 17042R   26197.49750942  .00010084  00000+0  33733-3 0  9991
2 42840  97.3778  15.8960 0005913 324.3797  35.7049 15.31157870492699
LEMUR-2-PETERG          
1 42841U 17042S   26197.96646286  .00011210  00000+0  33162-3 0  9997
2 42841  97.3994  23.0718 0003427 212.2354 147.8680 15.35069947493007
LEMUR-2-DEMBITZ         
1 42842U 17042T   26198.23615466  .00008872  00000+0  29729-3 0  9999
2 42842  97.3830  19.6761 0005078 264.8229  95.2433 15.31146418492943
LEMUR-2-ZACHARY         
1 42845U 17042W   26198.30773833  .00029777  00000+0  48061-3 0  9990
2 42845  97.3571  30.6406 0002663 235.0924 125.0078 15.52848378493873
LEMUR-2-AMANDA-SVANTE   
1 48269U 21034B   26197.75371137  .00019624  00000+0  56092-3 0  9994
2 48269  97.5750 276.8554 0004656 139.3805 220.7786 15.36021211285594
LEMUR-2-SPECIAL-K       
1 48273U 21034F   26198.04885778  .00187699  00000+0  12202-2 0  9995
2 48273  97.5641 287.3062 0006292 212.8782 147.2092 15.75386170286379
LEMUR-2-EMBRIONOVIS     
1 56970U 23084AQ  26198.19656633  .00007666  00000+0  20547-3 0  9994
2 56970  97.6328 343.5695 0008515 198.7733 161.3198 15.38262005172298
LEMUR-2-DEVERILL-M-T    
1 57391U 23100F   26198.11374445  .00015224  00000+0  36985-3 0  9993
2 57391  99.4448 245.5500 0004726 288.8996  71.1731 15.41151764165855
LEMUR-2-BASS            
1 58259U 23174D   26198.22482117  .00009915  00000+0  21900-3 0  9997
2 58259  97.3844 283.3766 0007531  71.9840 288.2229 15.44036635149998
LEMUR-2-JK0903EM1407    
1 58336U 23174CJ  26197.79411387  .00017604  00000+0  28238-3 0  9990
2 58336  97.3923 289.1304 0003478  27.1565 332.9869 15.53123709150322
LEMUR-2-MJR092620       
1 58340U 23174CN  26198.20255621  .00010751  00000+0  22284-3 0  9990
2 58340  97.3975 288.8070 0005150  23.4875 336.6608 15.45908152150283
LEMUR-2-NIMBUS2000      
1 58899U 24022A   26197.56710173  .00013172  00000+0  31938-3 0  9994
2 58899  97.4075  47.9572 0008617  24.2441 335.9209 15.41153193136796
LEMUR-2-VALHALLA        
1 58900U 24022B   26197.83234561  .00009575  00000+0  23769-3 0  9994
2 58900  97.4076  48.1944 0009043  18.4869 341.6704 15.40519232136837
LEMUR-2-CAEL            
1 58903U 24022E   26198.01119034  .00010116  00000+0  24002-3 0  9999
2 58903  97.4055  49.3652 0006912   3.1260 357.0029 15.41893373136938
LEMUR-2-JOHNNYTRUONG    
1 59146U 24043BA  26197.94691542  .00025455  00000+0  28537-3 0  9991
2 59146  97.5398 351.5472 0004008  89.6727 270.4990 15.62657592132685
LEMUR-2-TOMATOKECHUP    
1 60471U 24149D   26197.48204929  .00005784  00000+0  16419-3 0  9998
2 60471  97.3796 279.6140 0003348 120.3105 239.8471 15.36597838106668
LEMUR-2-STELLA          
1 60533U 24149BT  26198.19094303  .00005866  00000+0  34171-3 0  9995
2 60533  97.6732 280.7889 0001224 121.9085 238.2264 15.12393884105030
LEMUR-2-MARHISYAM       
1 60536U 24149BW  26198.18263753  .00005814  00000+0  34433-3 0  9998
2 60536  97.6875 281.2593 0002291  66.0951 294.0519 15.11799755105012
LEMUR-2-AHMED-ASRAR     
1 60576U 24149DN  26198.18713751  .00006416  00000+0  36384-3 0  9996
2 60576  97.7002 283.4749 0001380 197.8671 162.2511 15.13331428105105
LEMUR-2-LLOYD           
1 60577U 24149DP  26197.73928474  .00004792  00000+0  30078-3 0  9996
2 60577  97.6742 278.8938 0004662  68.7194 291.4532 15.09766834104853
LEMUR-2-SQUIRRELCOMM    
1 60578U 24149DQ  26198.19490732  .00002407  00000+0  16298-3 0  9998
2 60578  97.6704 279.0168 0004039 318.1739  41.9179 15.07456450104926
LEMUR-2-SIERRINI        
1 60579U 24149DR  26197.94707483  .00005753  00000+0  34313-3 0  9990
2 60579  97.6838 280.6818 0006423  86.4880 273.7085 15.11533947104952
LEMUR-2-WILSON          
1 62694U 25009CP  26197.74097495  .00000793  00000+0  77175-4 0  9992
2 62694  97.7019 275.6876 0001903 316.2557  43.8513 14.95279131 81774
LEMUR-2-STAR-FOX        
1 62696U 25009CR  26198.19089499  .00003558  00000+0  26999-3 0  9998
2 62696  97.6903 279.5841 0001986  34.7534 325.3820 15.02855199 82065
LEMUR-2-ARIANNA         
1 62699U 25009CU  26198.18935917  .00003729  00000+0  28273-3 0  9992
2 62699  97.6845 279.3334 0002339  42.8979 317.2428 15.02857687 82062
LEMUR-2-ALISIA          
1 62706U 25009DB  26198.02815192  .00004168  00000+0  31268-3 0  9992
2 62706  97.6968 280.0020 0004538 123.9243 236.2414 15.03191133104648
